[{"OBJECT_NAME":"STARLINK-1434","OBJECT_ID":"2020-035BH","EPOCH":"2026-03-09T05:47:35.213856","MEAN_MOTION":15.26724568,"ECCENTRICITY":0.00053438,"INCLINATION":53.0547,"RA_OF_ASC_NODE":22.1128,"ARG_OF_PERICENTER":88.04,"MEAN_ANOMALY":272.121,"EPHEMERIS_TYPE":0,"CLASSIFICATION_TYPE":"U","NORAD_CAT_ID":45712,"ELEMENT_SET_NO":999,"REV_AT_EPOCH":31932,"BSTAR":0.0020295208,"MEAN_MOTION_DOT":0.00054112,"MEAN_MOTION_DDOT":0},{"OBJECT_NAME":"STARLINK-31312","OBJECT_ID":"2024-044A","EPOCH":"2026-03-09T07:36:03.695616","MEAN_MOTION":15.27574682,"ECCENTRICITY":0.00012325,"INCLINATION":43.0017,"RA_OF_ASC_NODE":58.4291,"ARG_OF_PERICENTER":266.5226,"MEAN_ANOMALY":93.5484,"EPHEMERIS_TYPE":0,"CLASSIFICATION_TYPE":"U","NORAD_CAT_ID":59152,"ELEMENT_SET_NO":999,"REV_AT_EPOCH":11412,"BSTAR":3.3039854e-5,"MEAN_MOTION_DOT":6.47e-6,"MEAN_MOTION_DDOT":0}]
